IRIDIUM 8 [+]           
1 24792U 97020A   09101.49279964  .00000030  00000-0  36610-5 0  5724
2 24792  86.3963 127.8296 0002552  81.8003 278.3487 14.34219003624828
IRIDIUM 7 [+]           
1 24793U 97020B   09101.48646394  .00000049  00000-0  10500-4 0  5706
2 24793  86.3951 127.9618 0002593  80.8622 279.2875 14.34218648624821
IRIDIUM 6 [+]           
1 24794U 97020C   09101.54988698  .00000049  00000-0  10398-4 0  3703
2 24794  86.3971 127.9249 0002633  79.0745 281.0746 14.34218910624836
IRIDIUM 5 [+]           
1 24795U 97020D   09101.47376830 -.00000008  00000-0 -98374-5 0  7044
2 24795  86.3933 128.1161 0001626  55.3189 304.8178 14.34218919624901
IRIDIUM 4 [+]           
1 24796U 97020E   09101.49914505  .00000003  00000-0 -60320-5 0  5912
2 24796  86.3956 127.7313 0002621  81.6231 278.5274 14.34218686624845
IRIDIUM 914 [-]         
1 24836U 97030A   09101.64567059  .00000092  00000-0  24274-4 0  1856
2 24836  86.3965 152.2225 0002311 113.6907 246.4543 14.37430406619461
IRIDIUM 12 [+]          
1 24837U 97030B   09101.42018390  .00000103  00000-0  29778-4 0  5875
2 24837  86.4019 159.2939 0002480  81.9358 278.2118 14.34220623618562
IRIDIUM 10 [+]          
1 24839U 97030D   09101.54703730  .00000112  00000-0  32788-4 0  5885
2 24839  86.4022 159.2392 0002494  82.2157 277.9321 14.34220459618599
IRIDIUM 13 [+]          
1 24840U 97030E   09101.21722010  .00000102  00000-0  29218-4 0  5448
2 24840  86.4022 159.4493 0002569  82.8320 277.3161 14.34220635618532
IRIDIUM 16 [-]          
1 24841U 97030F   09101.52328732  .00000108  00000-0  30906-4 0  5718
2 24841  86.4104 159.8458 0002835  38.8838 321.2561 14.35274727618715
IRIDIUM 911 [-]         
1 24842U 97030G   09101.24929062  .00000099  00000-0  23515-4 0  2704
2 24842  86.4507 162.1894 0012734 286.0996  73.8794 14.43161653621630
IRIDIUM 15 [+]          
1 24869U 97034A   09101.34749997  .00000176  00000-0  55678-4 0  6081
2 24869  86.4023 190.9292 0002325  84.8678 275.2782 14.34218100615525
IRIDIUM 17 [-]          
1 24870U 97034B   09101.30495503  .00000052  00000-0  11439-4 0  5797
2 24870  86.4017 190.8590 0002400  74.8304 285.3156 14.34426566615534
IRIDIUM 920 [-]         
1 24871U 97034C   09101.27585945  .00000014  00000-0 -19216-5 0  2095
2 24871  86.4034 184.1571 0014379  80.9704 279.3120 14.38056797616612
IRIDIUM 18 [+]          
1 24872U 97034D   09101.51875562  .00000180  00000-0  57313-4 0  5747
2 24872  86.4028 190.9977 0002431  81.5877 278.5595 14.34217567615543
IRIDIUM 921 [-]         
1 24873U 97034E   09101.30174997  .00000223  00000-0  16589-4 0  5354
2 24873  86.3902  22.0319 0011582  68.0642 292.1812 14.97120909639201
IRIDIUM 26 [+]          
1 24903U 97043A   09101.43525008  .00000107  00000-0  31217-4 0  6846
2 24903  86.3920  64.6708 0002489  79.5131 280.6345 14.34213736609476
IRIDIUM 25 [+]          
1 24904U 97043B   09101.46694912  .00000071  00000-0  18146-4 0  5778
2 24904  86.3920  64.6080 0002465  79.4095 280.7377 14.34214064609440
IRIDIUM 46 [+]          
1 24905U 97043C   09101.40987275  .00000086  00000-0  23754-4 0  5890
2 24905  86.3926  64.9072 0002493  79.9260 280.2209 14.34214012609443
IRIDIUM 23 [+]          
1 24906U 97043D   09101.45427004  .00000039  00000-0  68892-5 0  5919
2 24906  86.3918  64.5485 0002501  79.5946 280.5530 14.34213607609456
IRIDIUM 22 [+]          
1 24907U 97043E   09101.44792339  .00000075  00000-0  19704-4 0  5642
2 24907  86.3931  64.9364 0002433  78.6678 281.4789 14.34213996609455
DUMMY MASS 1 [-]        
1 24925U 97048A   09102.11078807  .00000086  00000-0  70069-5 0  1751
2 24925  86.3367 339.3193 0008119 135.2131 224.9756 14.83823804628331
DUMMY MASS 2 [-]        
1 24926U 97048B   09102.10169714  .00000074  00000-0  55393-5 0  1692
2 24926  86.3373 339.9602 0008765 140.7956 219.3923 14.83604679628244
IRIDIUM 29 [+]          
1 24944U 97051A   09101.52744988 -.00000065  00000-0 -30121-4 0  5443
2 24944  86.3900  96.2287 0002502  78.7787 281.3688 14.34214555606033
IRIDIUM 32 [+]          
1 24945U 97051B   09101.47671628 -.00000057  00000-0 -27515-4 0  5475
2 24945  86.3905  96.2640 0002543  80.3211 279.8260 14.34214408606044
IRIDIUM 33 [-]          
1 24946U 97051C   09101.90519480  .00000083  00000-0  23357-4 0  5906
2 24946  86.3814  96.1236 0005793 246.7125 113.3453 14.32473191606080
IRIDIUM 28 [-]          
1 24948U 97051E   09101.51820872  .00000101  00000-0  28915-4 0  4078
2 24948  86.3913  96.3923 0002108  69.9720 290.1699 14.34251615606027
IRIDIUM 30 [+]          
1 24949U 97051F   09101.54014085 -.00000031  00000-0 -18181-4 0  5847
2 24949  86.3912  96.2895 0002577  80.3892 279.7594 14.34214585606034
IRIDIUM 31 [+]          
1 24950U 97051G   09101.53380361 -.00000055  00000-0 -26711-4 0  5722
2 24950  86.3914  96.2838 0002568  80.1414 280.0069 14.34214170606046
IRIDIUM 19 [+]          
1 24965U 97056A   09101.51817336  .00000030  00000-0  38145-5 0  5476
2 24965  86.3954 127.7940 0002542  82.6395 277.5095 14.34218856604185
IRIDIUM 35 [+]          
1 24966U 97056B   09101.53085713  .00000016  00000-0 -14307-5 0  5957
2 24966  86.3963 127.8147 0002488  84.6156 275.5326 14.34218851604160
IRIDIUM 36 [-]          
1 24967U 97056C   09101.51685099  .00000150  00000-0  46483-4 0  5248
2 24967  86.3964 127.8875 0002484  81.6365 278.5122 14.34290248604308
IRIDIUM 37 [+]          
1 24968U 97056D   09101.50548795  .00000039  00000-0  68485-5 0  5589
2 24968  86.3969 127.9223 0002567  85.2671 274.8824 14.34218903604164
IRIDIUM 34 [+]          
1 24969U 97056E   09101.52451065  .00000012  00000-0 -28201-5 0  5488
2 24969  86.3965 127.8599 0002487  84.0963 276.0525 14.34219048604161
IRIDIUM 43 [+]          
1 25039U 97069A   09101.30310494  .00000250  00000-0  82328-4 0  5423
2 25039  86.4028 191.1060 0002311  85.7767 274.3687 14.34217992597914
IRIDIUM 41 [+]          
1 25040U 97069B   09101.29676690  .00000172  00000-0  54258-4 0  5330
2 25040  86.4028 191.0212 0002309  84.4029 275.7430 14.34221723597916
IRIDIUM 40 [+]          
1 25041U 97069C   09101.32213421 -.00000132  00000-0 -54262-4 0  5618
2 25041  86.4025 190.9792 0002320  84.6229 275.5230 14.34216488597932
IRIDIUM 39 [+]          
1 25042U 97069D   09101.32847556  .00000180  00000-0  57107-4 0  5332
2 25042  86.4040 191.1336 0002333  76.5902 283.5551 14.34218335597915
IRIDIUM 38 [-]          
1 25043U 97069E   09101.28128684  .00000132  00000-0  39519-4 0  5606
2 25043  86.4026 190.4336 0002183  58.8396 301.3007 14.34691597598017
IRIDIUM 42 [+]          
1 25077U 97077A   09101.31579184 -.00000268  00000-0 -10264-3 0  5473
2 25077  86.4029 191.0564 0002286  83.7648 276.3805 14.34216386593772
IRIDIUM 44 [-]          
1 25078U 97077B   09100.78022359  .00000120  00000-0  33982-4 0   856
2 25078  86.4021 186.9141 0002828  41.2845 318.8565 14.36542576594253
IRIDIUM 45 [+]          
1 25104U 97082A   09101.47329465  .00000104  00000-0  30188-4 0  4948
2 25104  86.3917  64.6308 0002516  81.2468 278.9012 14.34214100591990
IRIDIUM 24 [-]          
1 25105U 97082B   09101.96541342  .00000026  00000-0  18821-5 0  1371
2 25105  86.3898  55.2850 0013931  83.9887 276.2886 14.38257396593130
IRIDIUM 47 [+]          
1 25106U 97082C   09101.41621133  .00000095  00000-0  26822-4 0  4849
2 25106  86.3920  64.5970 0002520  74.3087 285.8384 14.34214159591987
IRIDIUM 49 [+]          
1 25108U 97082E   09101.42890199  .00000121  00000-0  36131-4 0  5049
2 25108  86.3919  64.6110 0002503  79.2018 280.9456 14.34213931591997
IRIDIUM 52 [+]          
1 25169U 98010A   09101.52799944  .00000131  00000-0  39656-4 0  2879
2 25169  86.3997 159.4046 0002443  87.3646 272.7829 14.34221109583418
IRIDIUM 56 [+]          
1 25170U 98010B   09101.45189355  .00000081  00000-0  21860-4 0  3808
2 25170  86.4024 159.4812 0002463  86.8896 273.2583 14.34220525583386
IRIDIUM 54 [+]          
1 25171U 98010C   09101.48360972  .00000131  00000-0  39701-4 0  5157
2 25171  86.4026 159.4271 0002435  83.7447 276.4027 14.34220631583550
IRIDIUM 50 [+]          
1 25172U 98010D   09101.51532093  .00000094  00000-0  26545-4 0  5360
2 25172  86.4029 159.3859 0002504  87.3279 272.8202 14.34220633583394
IRIDIUM 53 [+]          
1 25173U 98010E   09101.53434777  .00000177  00000-0  56010-4 0  5220
2 25173  86.4027 159.3875 0002458  84.1419 276.0058 14.34221051583402
IRIDIUM 51 [S]          
1 25262U 98018A   09101.55603111  .00000247  00000-0  67752-4 0  6267
2 25262  86.4467 127.9431 0002686  81.5744 278.5760 14.42952191581762
IRIDIUM 61 [+]          
1 25263U 98018B   09101.51183388  .00000028  00000-0  29704-5 0  4770
2 25263  86.3948 127.8960 0002555  81.9048 278.2448 14.34218697578491
IRIDIUM 55 [+]          
1 25272U 98019A   09101.51476695 -.00000004  00000-0 -85066-5 0  4732
2 25272  86.3912  96.1806 0002497  78.9615 281.1862 14.34214949577690
IRIDIUM 57 [+]          
1 25273U 98019B   09101.48939681 -.00000028  00000-0 -17197-4 0  5060
2 25273  86.3907  96.3655 0002529  81.3768 278.7709 14.34214709577698
IRIDIUM 58 [+]          
1 25274U 98019C   09101.49574487 -.00000050  00000-0 -25021-4 0  3160
2 25274  86.3916  96.4714 0002594  79.6584 280.4900 14.34214431577699
IRIDIUM 59 [+]          
1 25275U 98019D   09101.50208535 -.00000042  00000-0 -21993-4 0  1636
2 25275  86.3905  96.4835 0002569  73.2657 286.8821 14.34214520577696
IRIDIUM 60 [+]          
1 25276U 98019E   09101.50843199 -.00000059  00000-0 -28254-4 0  5413
2 25276  86.3908  96.2174 0002481  80.3158 279.8316 14.34214221577691
IRIDIUM 62 [+]          
1 25285U 98021A   09101.33041727  .00000243  00000-0  79660-4 0  4974
2 25285  86.3973  33.0914 0002440  73.6357 286.5103 14.34218256576628
IRIDIUM 63 [+]          
1 25286U 98021B   09101.33676559  .00000123  00000-0  36724-4 0  5110
2 25286  86.3980  33.1720 0002442  79.9534 280.1935 14.34217539576627
